SL-16 R/B               
1 28353U 04021B   25194.51542630 -.00000099  00000+0 -26715-4 0  9999
2 28353  71.0020  14.4011 0004074  16.1616 343.9636 14.14557387 89017
CZ-4B R/B               
1 28415U 04035C   25194.80285204  .00005602  00000+0  22637-3 0  9997
2 28415  97.3775 227.3140 0037396  93.5809 266.9707 15.24495956143466
CZ-2C R/B               
1 28480U 04046B   25194.51167773  .00000103  00000+0  53046-4 0  9999
2 28480  98.1929 119.4441 0140408 141.7620 219.3622 14.26842488 74399
ARIANE 5 R/B            
1 28499U 04049H   25194.41511106  .00000561  00000+0  69290-4 0  9990
2 28499  98.2370 349.4386 0086189  47.0269 313.8129 14.84564281110282
CZ-2D R/B               
1 28738U 05024B   25194.46154344  .00015399  00000+0  33262-3 0  9996
2 28738  97.3671 198.9122 0006859 162.4120 197.7368 15.44589688102696
ALOS (DAICHI)           
1 28931U 06002A   25194.81163507  .00001008  00000+0  18115-3 0  9990
2 28931  98.0854 147.6816 0001353  52.8843 307.2486 14.68795504 38789
H-2A R/B                
1 28932U 06002B   25194.57747572  .00003961  00000+0  23095-3 0  9997
2 28932  98.2157 317.5517 0057476 333.3342  26.4933 15.11256148 58360
RESURS-DK 1             
1 29228U 06021A   25194.56006710  .00001591  00000+0  10115-3 0  9994
2 29228  69.9320 134.7517 0002895 164.3277 195.7978 15.11079719 51380
CZ-4B R/B               
1 29507U 06046C   25194.51002618  .00003393  00000+0  18774-3 0  9990
2 29507  97.5933 235.0561 0035730  17.2171 343.0263 15.14012269 23861
CZ-2C R/B               
1 31114U 07010B   25194.32602559  .00000075  00000+0  53675-4 0  9992
2 31114  98.3826 314.7937 0057871 270.2349  89.2197 14.20135909945746
COSMO-SKYMED 1          
1 31598U 07023A   25194.78987295  .00000921  00000+0  91517-4 0  9992
2 31598  97.8881  19.3298 0001416  90.6107 269.5275 14.94164539979261
GENESIS 2               
1 31789U 07028A   25194.84778344  .00127488  12598-4  51096-3 0  9994
2 31789  64.4723 293.9969 0025901 303.2778  56.5896 15.85911530998395
COSMOS 2428             
1 31792U 07029A   25194.52361986  .00000355  00000+0  21666-3 0  9997
2 31792  70.9421 345.3871 0005427 245.7652 114.2902 14.12882645930313
SL-16 R/B               
1 31793U 07029B   25194.82414580  .00000268  00000+0  16351-3 0  9998
2 31793  70.9772 314.4759 0002156 280.4086 247.0876 14.14790911931679
KORONAS-FOTON           
1 33504U 09003A   25194.85571068  .00005429  00000+0  14822-3 0  9997
2 33504  82.4333 162.8896 0009814 298.0351  61.9900 15.37130890909112
CZ-2C R/B               
1 37731U 11030B   25194.47145343  .00000987  00000+0  13332-3 0  9996
2 37731  97.8162 152.2682 0054722  49.8352  62.5057 14.80268991754697
H-2A R/B                
1 38341U 12025E   25194.77718284  .00002432  00000+0  23473-3 0  9996
2 38341  98.4375 138.7043 0046661  15.2448 345.0163 14.93145710712625
SHIJIAN-16 (SJ-16)      
1 39358U 13057A   25194.88979398  .00001052  00000+0  10791-3 0  9994
2 39358  74.9721 276.8133 0017736 330.4127  29.6055 14.91435062635965
SL-4 R/B                
1 39679U 14021B   25194.88733942  .00006668  00000+0  18599-3 0  9997
2 39679  51.6099  55.5794 0111253 317.3162  41.9215 15.32060174619903
ALOS-2                  
1 39766U 14029A   25194.83965330  .00001045  00000+0  14675-3 0  9990
2 39766  97.9230 291.8602 0001561  98.1579 261.9810 14.79473053601583
YAOGAN-29               
1 41038U 15069A   25194.84843686  .00000304  00000+0  44437-4 0  9997
2 41038  98.0336 217.3923 0002722  67.7124 292.4377 14.82664473520482
ASTRO-H (HITOMI)        
1 41337U 16012A   25194.05772662  .00001895  00000+0  11378-3 0  9999
2 41337  30.9995 100.6515 0009811  85.8509 274.3249 15.08159295516005
HXMT (HUIYAN)           
1 42758U 17034A   25194.62853101  .00003382  00000+0  19269-3 0  9993
2 42758  43.0140 262.1655 0034148 168.6267 191.5358 15.14076179446280
CZ-2C R/B               
1 43521U 18054D   25194.05395953  .00025974  00000+0  38261-3 0  9992
2 43521  35.1382 116.9481 0030256 138.0636 222.2414 15.53878914391171
SAOCOM 1A               
1 43641U 18076A   25194.84067255  .00000268  00000+0  40235-4 0  9991
2 43641  97.8889  21.4349 0001406  91.7094 268.4280 14.82161023365982
H-2A R/B                
1 43682U 18084L   25194.69681747  .00011751  00000+0  38653-3 0  9995
2 43682  98.8788 358.1794 0032542 126.0317 234.3943 15.31222769369099
SAOCOM 1B               
1 46265U 20059A   25194.80439375  .00000261  00000+0  39294-4 0  9998
2 46265  97.8893  20.5028 0001527  88.7630 271.3758 14.82149802263376
CSS (TIANHE)            
1 48274U 21035A   25194.78354508  .00014440  00000+0  20021-3 0  9997
2 48274  41.4635 219.3061 0008730 274.3138  85.6702 15.56730728240309
COSMOS 2550             
1 48865U 21056A   25194.85762076  .00004144  00000+0  13175-3 0  9999
2 48865  67.1423  43.4228 0008355 269.4866  90.5331 15.33824304226847
CZ-2C R/B               
1 52794U 22058K   25194.45089038  .00011921  00000+0  28050-3 0  9993
2 52794  50.1938  94.8334 0055434 284.3659  75.1156 15.40776949173103
GSLV R/B                
1 54149U 22138AN  25194.55942497  .00001567  00000+0  14056-3 0  9992
2 54149  87.3776 246.4298 0019973 303.4666  56.4654 14.94935434148183
XRISM                   
1 57800U 23137A   25194.58534379  .00003692  00000+0  22641-3 0  9998
2 57800  31.0031  26.1950 0007881 158.4964 201.6005 15.08302806101621
ACS3                    
1 59588U 24077B   25194.88991851  .00010957  00000+0  10534-1 0  9990
2 59588  97.4503 183.5341 0075579  60.6829 300.1852 13.78934002 61175
